KUIPER-00176            
1 65788U 25217AC  25361.00003472  .00003567  00000+0  46319-3 0  9990
2 65788  51.9008   4.6119 0002002  97.4723 110.6297 14.82909516  2267
KUIPER-00101            
1 65947U 25228A   25361.00003472 -.00027991  00000+0 -35460-2 0  9992
2 65947  51.8988 322.0406 0000965  69.4516 105.8892 14.81229715  5165
KUIPER-00113            
1 65948U 25228B   25361.00003472 -.00283252  00000+0 -28679-1 0  9990
2 65948  51.9176 317.6031 0006556  82.1231 343.5948 14.92121865  5676
KUIPER-00117            
1 65949U 25228C   25361.00003472 -.00257452  00000+0 -31638-1 0  9993
2 65949  51.9002 319.6794 0010244  74.7468  24.9343 14.84125562  3093
KUIPER-00121            
1 65950U 25228D   25361.00003472 -.01114998  00000+0 -91173-1 0  9993
2 65950  51.8899 315.1991 0005276  92.6975 223.9887 15.02026702  1841
KUIPER-00122            
1 65951U 25228E   25360.59148743  .00096917  00000+0  12653-1 0  9991
2 65951  51.9019 326.3182 0000258  71.8244 288.2746 14.79618645 12370
KUIPER-00123            
1 65952U 25228F   25359.13946781  .00070142  00000+0  92633-2 0  9997
2 65952  51.8998 332.7639 0000613  98.9393 261.1639 14.79340687 12159
KUIPER-00124            
1 65953U 25228G   25361.00003472 -.00036943  00000+0 -43983-2 0  9995
2 65953  51.8988 317.1304 0004326  83.6539  16.9655 14.83928998  5612
